{"fetched_at":"2026-07-19T07:04:54.104Z","source":"https://celestrak.org/NORAD/elements/gp.php?GROUP=spire&FORMAT=JSON","constellation":"spire","records":[{"OBJECT_NAME":"LEMUR-2-VALHALLA","OBJECT_ID":"2024-022B","EPOCH":"2026-07-18T20:18:09.045792","CLASSIFICATION_TYPE":"U","MEAN_MOTION":15.40554967,"ECCENTRICITY":0.0008843,"INCLINATION":97.4078,"RA_OF_ASC_NODE":50.234,"ARG_OF_PERICENTER":11.5023,"MEAN_ANOMALY":348.6423,"EPHEMERIS_TYPE":0,"NORAD_CAT_ID":58900,"ELEMENT_SET_NO":999,"REV_AT_EPOCH":13714,"BSTAR":0.00021908,"MEAN_MOTION_DOT":0.00008827,"MEAN_MOTION_DDOT":0},{"OBJECT_NAME":"LEMUR-2-CAEL","OBJECT_ID":"2024-022E","EPOCH":"2026-07-18T02:44:47.634144","CLASSIFICATION_TYPE":"U","MEAN_MOTION":15.41915567,"ECCENTRICITY":0.00067853,"INCLINATION":97.4058,"RA_OF_ASC_NODE":50.4848,"ARG_OF_PERICENTER":358.7316,"MEAN_ANOMALY":1.3912,"EPHEMERIS_TYPE":0,"NORAD_CAT_ID":58903,"ELEMENT_SET_NO":999,"REV_AT_EPOCH":13710,"BSTAR":0.00023069587,"MEAN_MOTION_DOT":0.00009726,"MEAN_MOTION_DDOT":0},{"OBJECT_NAME":"LEMUR-2-JOHNNYTRUONG","OBJECT_ID":"2024-043BA","EPOCH":"2026-07-18T20:49:49.012032","CLASSIFICATION_TYPE":"U","MEAN_MOTION":15.62759665,"ECCENTRICITY":0.0003851,"INCLINATION":97.5405,"RA_OF_ASC_NODE":353.5944,"ARG_OF_PERICENTER":84.0742,"MEAN_ANOMALY":276.0954,"EPHEMERIS_TYPE":0,"NORAD_CAT_ID":59146,"ELEMENT_SET_NO":999,"REV_AT_EPOCH":13298,"BSTAR":0.00027716,"MEAN_MOTION_DOT":0.00024814,"MEAN_MOTION_DDOT":0},{"OBJECT_NAME":"LEMUR-2-TOMATOKECHUP","OBJECT_ID":"2024-149D","EPOCH":"2026-07-18T18:16:13.359072","CLASSIFICATION_TYPE":"U","MEAN_MOTION":15.36625314,"ECCENTRICITY":0.0003406,"INCLINATION":97.3787,"RA_OF_ASC_NODE":281.9009,"ARG_OF_PERICENTER":115.535,"MEAN_ANOMALY":244.6246,"EPHEMERIS_TYPE":0,"NORAD_CAT_ID":60471,"ELEMENT_SET_NO":999,"REV_AT_EPOCH":10701,"BSTAR":0.00016003,"MEAN_MOTION_DOT":0.00005641,"MEAN_MOTION_DDOT":0},{"OBJECT_NAME":"LEMUR-2-STELLA","OBJECT_ID":"2024-149BT","EPOCH":"2026-07-18T18:41:30.283872","CLASSIFICATION_TYPE":"U","MEAN_MOTION":15.12413075,"ECCENTRICITY":0.0001246,"INCLINATION":97.6731,"RA_OF_ASC_NODE":282.3852,"ARG_OF_PERICENTER":124.1125,"MEAN_ANOMALY":236.0223,"EPHEMERIS_TYPE":0,"NORAD_CAT_ID":60533,"ELEMENT_SET_NO":999,"REV_AT_EPOCH":10527,"BSTAR":0.00035988,"MEAN_MOTION_DOT":0.00006185,"MEAN_MOTION_DDOT":0},{"OBJECT_NAME":"LEMUR-2-MARHISYAM","OBJECT_ID":"2024-149BW","EPOCH":"2026-07-18T18:30:26.589312","CLASSIFICATION_TYPE":"U","MEAN_MOTION":15.11816351,"ECCENTRICITY":0.0002282,"INCLINATION":97.6874,"RA_OF_ASC_NODE":282.8575,"ARG_OF_PERICENTER":64.0829,"MEAN_ANOMALY":296.0636,"EPHEMERIS_TYPE":0,"NORAD_CAT_ID":60536,"ELEMENT_SET_NO":999,"REV_AT_EPOCH":10525,"BSTAR":0.00030038,"MEAN_MOTION_DOT":0.00005065,"MEAN_MOTION_DDOT":0},{"OBJECT_NAME":"LEMUR-2-AHMED-ASRAR","OBJECT_ID":"2024-149DN","EPOCH":"2026-07-18T18:34:36.369120","CLASSIFICATION_TYPE":"U","MEAN_MOTION":15.13352101,"ECCENTRICITY":0.0001528,"INCLINATION":97.7,"RA_OF_ASC_NODE":285.0778,"ARG_OF_PERICENTER":189.1526,"MEAN_ANOMALY":170.9677,"EPHEMERIS_TYPE":0,"NORAD_CAT_ID":60576,"ELEMENT_SET_NO":999,"REV_AT_EPOCH":10534,"BSTAR":0.0003474,"MEAN_MOTION_DOT":0.00006127,"MEAN_MOTION_DDOT":0},{"OBJECT_NAME":"LEMUR-2-LLOYD","OBJECT_ID":"2024-149DP","EPOCH":"2026-07-18T19:03:09.612000","CLASSIFICATION_TYPE":"U","MEAN_MOTION":15.09785247,"ECCENTRICITY":0.0004387,"INCLINATION":97.6733,"RA_OF_ASC_NODE":280.951,"ARG_OF_PERICENTER":62.6634,"MEAN_ANOMALY":297.5041,"EPHEMERIS_TYPE":0,"NORAD_CAT_ID":60577,"ELEMENT_SET_NO":999,"REV_AT_EPOCH":10516,"BSTAR":0.00029276,"MEAN_MOTION_DOT":0.00004665,"MEAN_MOTION_DDOT":0},{"OBJECT_NAME":"LEMUR-2-SQUIRRELCOMM","OBJECT_ID":"2024-149DQ","EPOCH":"2026-07-18T18:54:42.240096","CLASSIFICATION_TYPE":"U","MEAN_MOTION":15.07465103,"ECCENTRICITY":0.000402,"INCLINATION":97.67,"RA_OF_ASC_NODE":280.6052,"ARG_OF_PERICENTER":309.7774,"MEAN_ANOMALY":50.3099,"EPHEMERIS_TYPE":0,"NORAD_CAT_ID":60578,"ELEMENT_SET_NO":999,"REV_AT_EPOCH":10516,"BSTAR":0.00019173,"MEAN_MOTION_DOT":0.00002844,"MEAN_MOTION_DDOT":0},{"OBJECT_NAME":"LEMUR-2-SIERRINI","OBJECT_ID":"2024-149DR","EPOCH":"2026-07-18T19:12:56.439072","CLASSIFICATION_TYPE":"U","MEAN_MOTION":15.11553194,"ECCENTRICITY":0.0006227,"INCLINATION":97.683,"RA_OF_ASC_NODE":282.5451,"ARG_OF_PERICENTER":81.6935,"MEAN_ANOMALY":278.5001,"EPHEMERIS_TYPE":0,"NORAD_CAT_ID":60579,"ELEMENT_SET_NO":999,"REV_AT_EPOCH":10523,"BSTAR":0.00031941,"MEAN_MOTION_DOT":0.00005353,"MEAN_MOTION_DDOT":0},{"OBJECT_NAME":"LEMUR-2-WILSON","OBJECT_ID":"2025-009CP","EPOCH":"2026-07-18T17:57:53.309088","CLASSIFICATION_TYPE":"U","MEAN_MOTION":14.95282787,"ECCENTRICITY":0.0001729,"INCLINATION":97.7017,"RA_OF_ASC_NODE":277.6599,"ARG_OF_PERICENTER":303.7039,"MEAN_ANOMALY":56.4017,"EPHEMERIS_TYPE":0,"NORAD_CAT_ID":62694,"ELEMENT_SET_NO":999,"REV_AT_EPOCH":8207,"BSTAR":0.000092426,"MEAN_MOTION_DOT":0.00000961,"MEAN_MOTION_DDOT":0},{"OBJECT_NAME":"LEMUR-2-STAR-FOX","OBJECT_ID":"2025-009CR","EPOCH":"2026-07-18T18:55:56.394624","CLASSIFICATION_TYPE":"U","MEAN_MOTION":15.02867156,"ECCENTRICITY":0.0001823,"INCLINATION":97.6898,"RA_OF_ASC_NODE":281.1703,"ARG_OF_PERICENTER":28.2568,"MEAN_ANOMALY":331.8756,"EPHEMERIS_TYPE":0,"NORAD_CAT_ID":62696,"ELEMENT_SET_NO":999,"REV_AT_EPOCH":8230,"BSTAR":0.00028579,"MEAN_MOTION_DOT":0.00003771,"MEAN_MOTION_DDOT":0},{"OBJECT_NAME":"LEMUR-2-ARIANNA","OBJECT_ID":"2025-009CU","EPOCH":"2026-07-18T18:53:43.425024","CLASSIFICATION_TYPE":"U","MEAN_MOTION":15.02870725,"ECCENTRICITY":0.0002141,"INCLINATION":97.684,"RA_OF_ASC_NODE":280.9185,"ARG_OF_PERICENTER":37.2363,"MEAN_ANOMALY":322.9011,"EPHEMERIS_TYPE":0,"NORAD_CAT_ID":62699,"ELEMENT_SET_NO":999,"REV_AT_EPOCH":8230,"BSTAR":0.00030905,"MEAN_MOTION_DOT":0.00004084,"MEAN_MOTION_DDOT":0},{"OBJECT_NAME":"LEMUR-2-ALISIA","OBJECT_ID":"2025-009DB","EPOCH":"2026-07-18T18:12:47.270880","CLASSIFICATION_TYPE":"U","MEAN_MOTION":15.03204115,"ECCENTRICITY":0.0004736,"INCLINATION":97.6963,"RA_OF_ASC_NODE":281.7223,"ARG_OF_PERICENTER":119.1636,"MEAN_ANOMALY":241.0064,"EPHEMERIS_TYPE":0,"NORAD_CAT_ID":62706,"ELEMENT_SET_NO":999,"REV_AT_EPOCH":10490,"BSTAR":0.00027627,"MEAN_MOTION_DOT":0.00003677,"MEAN_MOTION_DDOT":0},{"OBJECT_NAME":"LEMUR-2-ROUNDTRIPPER","OBJECT_ID":"2025-009DG","EPOCH":"2026-07-18T18:16:39.019872","CLASSIFICATION_TYPE":"U","MEAN_MOTION":15.04262462,"ECCENTRICITY":0.0004485,"INCLINATION":97.7243,"RA_OF_ASC_NODE":282.4037,"ARG_OF_PERICENTER":57.6455,"MEAN_ANOMALY":302.5204,"EPHEMERIS_TYPE":0,"NORAD_CAT_ID":62711,"ELEMENT_SET_NO":999,"REV_AT_EPOCH":8237,"BSTAR":0.0002809,"MEAN_MOTION_DOT":0.00003847,"MEAN_MOTION_DDOT":0},{"OBJECT_NAME":"LEMUR-2-MYNAMEISJEFF","OBJECT_ID":"2025-009DH","EPOCH":"2026-07-18T18:14:30.202656","CLASSIFICATION_TYPE":"U","MEAN_MOTION":15.04253607,"ECCENTRICITY":0.0004339,"INCLINATION":97.7292,"RA_OF_ASC_NODE":282.8025,"ARG_OF_PERICENTER":90.3716,"MEAN_ANOMALY":269.8007,"EPHEMERIS_TYPE":0,"NORAD_CAT_ID":62712,"ELEMENT_SET_NO":999,"REV_AT_EPOCH":8237,"BSTAR":0.00028304,"MEAN_MOTION_DOT":0.00003875,"MEAN_MOTION_DDOT":0}]}
